{
  "type": "FeatureCollection",
  "features": [
    {
      "type": "Feature",
      "properties": {
        "norad_id": 37280,
        "name": "COSMOS 2251 DEB",
        "group": "cosmos-2251-debris",
        "lat": 72.1261020103155,
        "lon": -177.49886954365837,
        "alt_km": 830.1060659996538,
        "timestamp": "2025-12-08T05:48:09.431160+00:00",
        "meta_object_name": "COSMOS 2251 DEB",
        "meta_object_id": "1993-036BHU",
        "meta_epoch": "2025-12-07T22:33:59.390208",
        "meta_mean_motion": 14.19261757,
        "meta_eccentricity": 0.01314572,
        "meta_inclination": 74.0315,
        "meta_ra_of_asc_node": 65.6486,
        "meta_arg_of_pericenter": 195.2525,
        "meta_mean_anomaly": 164.4641,
        "meta_ephemeris_type": 0,
        "meta_classification_type": "U",
        "meta_norad_cat_id": 37280,
        "meta_element_set_no": 999,
        "meta_rev_at_epoch": 57255,
        "meta_bstar": 0.0024447431,
        "meta_mean_motion_dot": 5.567e-05,
        "meta_mean_motion_ddot": 0,
        "tle_line1": "1 37280U 93036BHU 25341.94027072  .00005567  00000+0  24447-2 0  9992",
        "tle_line2": "2 37280  74.0315  65.6486 0131457 195.2525 164.4641 14.19261757572550"
      },
      "geometry": {
        "type": "Point",
        "coordinates": [
          -177.49886954365837,
          72.1261020103155
        ]
      }
    },
    {
      "type": "Feature",
      "properties": {
        "norad_id": 37284,
        "name": "COSMOS 2251 DEB",
        "group": "cosmos-2251-debris",
        "lat": -23.553962807849373,
        "lon": -8.129590953715086,
        "alt_km": 899.0313334962766,
        "timestamp": "2025-12-08T05:48:09.431170+00:00",
        "meta_object_name": "COSMOS 2251 DEB",
        "meta_object_id": "1993-036BHY",
        "meta_epoch": "2025-12-05T19:06:47.225088",
        "meta_mean_motion": 14.12657303,
        "meta_eccentricity": 0.01604408,
        "meta_inclination": 74.0121,
        "meta_ra_of_asc_node": 169.0185,
        "meta_arg_of_pericenter": 322.3384,
        "meta_mean_anomaly": 52.3924,
        "meta_ephemeris_type": 0,
        "meta_classification_type": "U",
        "meta_norad_cat_id": 37284,
        "meta_element_set_no": 999,
        "meta_rev_at_epoch": 59077,
        "meta_bstar": 0.001984473,
        "meta_mean_motion_dot": 4.13e-05,
        "meta_mean_motion_ddot": 0,
        "tle_line1": "1 37284U 93036BHY 25339.79637992  .00004130  00000+0  19845-2 0  9995",
        "tle_line2": "2 37284  74.0121 169.0185 0160440 322.3384  52.3924 14.12657303590776"
      },
      "geometry": {
        "type": "Point",
        "coordinates": [
          -8.129590953715086,
          -23.553962807849373
        ]
      }
    },
    {
      "type": "Feature",
      "properties": {
        "norad_id": 37292,
        "name": "COSMOS 2251 DEB",
        "group": "cosmos-2251-debris",
        "lat": 54.41702000582031,
        "lon": -145.87115306018967,
        "alt_km": 799.0095470519491,
        "timestamp": "2025-12-08T05:48:09.431180+00:00",
        "meta_object_name": "COSMOS 2251 DEB",
        "meta_object_id": "1993-036BJG",
        "meta_epoch": "2025-12-02T14:04:30.366912",
        "meta_mean_motion": 14.03226454,
        "meta_eccentricity": 0.02102512,
        "meta_inclination": 74.129,
        "meta_ra_of_asc_node": 67.3453,
        "meta_arg_of_pericenter": 73.1105,
        "meta_mean_anomaly": 289.2966,
        "meta_ephemeris_type": 0,
        "meta_classification_type": "U",
        "meta_norad_cat_id": 37292,
        "meta_element_set_no": 999,
        "meta_rev_at_epoch": 59706,
        "meta_bstar": 0.0022453288,
        "meta_mean_motion_dot": 4.236e-05,
        "meta_mean_motion_ddot": 0,
        "tle_line1": "1 37292U 93036BJG 25336.58646258  .00004236  00000+0  22453-2 0  9999",
        "tle_line2": "2 37292  74.1290  67.3453 0210251  73.1105 289.2966 14.03226454597064"
      },
      "geometry": {
        "type": "Point",
        "coordinates": [
          -145.87115306018967,
          54.41702000582031
        ]
      }
    },
    {
      "type": "Feature",
      "properties": {
        "norad_id": 37295,
        "name": "COSMOS 2251 DEB",
        "group": "cosmos-2251-debris",
        "lat": 62.23890621030691,
        "lon": 77.282340927236,
        "alt_km": 639.1925704370597,
        "timestamp": "2025-12-08T05:48:09.431190+00:00",
        "meta_object_name": "COSMOS 2251 DEB",
        "meta_object_id": "1993-036BJK",
        "meta_epoch": "2025-12-07T12:54:15.700608",
        "meta_mean_motion": 14.65189269,
        "meta_eccentricity": 0.0043733,
        "meta_inclination": 74.008,
        "meta_ra_of_asc_node": 291.652,
        "meta_arg_of_pericenter": 112.4365,
        "meta_mean_anomaly": 248.1444,
        "meta_ephemeris_type": 0,
        "meta_classification_type": "U",
        "meta_norad_cat_id": 37295,
        "meta_element_set_no": 999,
        "meta_rev_at_epoch": 82228,
        "meta_bstar": 0.00098684391,
        "meta_mean_motion_dot": 5.358e-05,
        "meta_mean_motion_ddot": 0,
        "tle_line1": "1 37295U 93036BJK 25341.53768172  .00005358  00000+0  98684-3 0  9999",
        "tle_line2": "2 37295  74.0080 291.6520 0043733 112.4365 248.1444 14.65189269822284"
      },
      "geometry": {
        "type": "Point",
        "coordinates": [
          77.282340927236,
          62.23890621030691
        ]
      }
    },
    {
      "type": "Feature",
      "properties": {
        "norad_id": 37305,
        "name": "COSMOS 2251 DEB",
        "group": "cosmos-2251-debris",
        "lat": 5.431358561918412,
        "lon": -59.5573084527767,
        "alt_km": 783.2176356738782,
        "timestamp": "2025-12-08T05:48:09.431200+00:00",
        "meta_object_name": "COSMOS 2251 DEB",
        "meta_object_id": "1993-036BJV",
        "meta_epoch": "2025-12-01T04:54:57.845088",
        "meta_mean_motion": 14.36058989,
        "meta_eccentricity": 0.0050534,
        "meta_inclination": 73.8694,
        "meta_ra_of_asc_node": 311.9126,
        "meta_arg_of_pericenter": 273.9871,
        "meta_mean_anomaly": 85.5504,
        "meta_ephemeris_type": 0,
        "meta_classification_type": "U",
        "meta_norad_cat_id": 37305,
        "meta_element_set_no": 999,
        "meta_rev_at_epoch": 66701,
        "meta_bstar": 0.00088749,
        "meta_mean_motion_dot": 2.593e-05,
        "meta_mean_motion_ddot": 0,
        "tle_line1": "1 37305U 93036BJV 25335.20483617  .00002593  00000+0  88749-3 0  9995",
        "tle_line2": "2 37305  73.8694 311.9126 0050534 273.9871  85.5504 14.36058989667014"
      },
      "geometry": {
        "type": "Point",
        "coordinates": [
          -59.5573084527767,
          5.431358561918412
        ]
      }
    },
    {
      "type": "Feature",
      "properties": {
        "norad_id": 37312,
        "name": "COSMOS 2251 DEB",
        "group": "cosmos-2251-debris",
        "lat": -61.59061307084098,
        "lon": 64.53961911120889,
        "alt_km": 740.7270902499395,
        "timestamp": "2025-12-08T05:48:09.431210+00:00",
        "meta_object_name": "COSMOS 2251 DEB",
        "meta_object_id": "1993-036BKC",
        "meta_epoch": "2025-12-07T08:44:33.829152",
        "meta_mean_motion": 14.46101294,
        "meta_eccentricity": 0.00182642,
        "meta_inclination": 74.0312,
        "meta_ra_of_asc_node": 214.2138,
        "meta_arg_of_pericenter": 317.9243,
        "meta_mean_anomaly": 42.0511,
        "meta_ephemeris_type": 0,
        "meta_classification_type": "U",
        "meta_norad_cat_id": 37312,
        "meta_element_set_no": 999,
        "meta_rev_at_epoch": 86086,
        "meta_bstar": 0.00080794377,
        "meta_mean_motion_dot": 2.864e-05,
        "meta_mean_motion_ddot": 0,
        "tle_line1": "1 37312U 93036BKC 25341.36428043  .00002864  00000+0  80794-3 0  9992",
        "tle_line2": "2 37312  74.0312 214.2138 0018264 317.9243  42.0511 14.46101294860869"
      },
      "geometry": {
        "type": "Point",
        "coordinates": [
          64.53961911120889,
          -61.59061307084098
        ]
      }
    },
    {
      "type": "Feature",
      "properties": {
        "norad_id": 37316,
        "name": "COSMOS 2251 DEB",
        "group": "cosmos-2251-debris",
        "lat": 23.211666210430433,
        "lon": 37.200745555999845,
        "alt_km": 579.0946723548968,
        "timestamp": "2025-12-08T05:48:09.431220+00:00",
        "meta_object_name": "COSMOS 2251 DEB",
        "meta_object_id": "1993-036BKG",
        "meta_epoch": "2025-12-07T13:37:32.618496",
        "meta_mean_motion": 14.9417332,
        "meta_eccentricity": 0.00293383,
        "meta_inclination": 74.02,
        "meta_ra_of_asc_node": 31.5001,
        "meta_arg_of_pericenter": 102.0227,
        "meta_mean_anomaly": 258.4247,
        "meta_ephemeris_type": 0,
        "meta_classification_type": "U",
        "meta_norad_cat_id": 37316,
        "meta_element_set_no": 999,
        "meta_rev_at_epoch": 86066,
        "meta_bstar": 0.0033956107,
        "meta_mean_motion_dot": 0.0003683,
        "meta_mean_motion_ddot": 0,
        "tle_line1": "1 37316U 93036BKG 25341.56773864  .00036830  00000+0  33956-2 0  9999",
        "tle_line2": "2 37316  74.0200  31.5001 0029338 102.0227 258.4247 14.94173320860666"
      },
      "geometry": {
        "type": "Point",
        "coordinates": [
          37.200745555999845,
          23.211666210430433
        ]
      }
    }
  ]
}